QIANFAN-41              
1 62242U 24232F   26003.24077085  .00000114  00000+0  15742-3 0  9990
2 62242  89.0005  39.0265 0015680 125.4081 234.8537 13.50981935102151
QIANFAN-42              
1 62243U 24232G   26003.26775371  .00000476  00000+0  19886-3 0  9990
2 62243  88.9997  34.8964 0015617  22.6975 337.4905 14.24503105104432
QIANFAN-43              
1 62244U 24232H   26003.23662851  .00000120  00000+0  16680-3 0  9991
2 62244  89.0009  39.0933 0017105 130.5041 229.7604 13.50980858 70768
QIANFAN-44              
1 62245U 24232J   26003.22430096  .00000104  00000+0  14146-3 0  9992
2 62245  89.0007  38.9049 0015377 127.4223 232.8331 13.50983047102232
QIANFAN-45              
1 62246U 24232K   26003.26547835  .00000112  00000+0  15527-3 0  9990
2 62246  89.0011  39.0480 0016046 127.1334 233.1286 13.50979038102163
QIANFAN-46              
1 62247U 24232L   26003.21606510  .00000108  00000+0  14848-3 0  9992
2 62247  89.0007  39.1211 0015992 132.2630 227.9880 13.50980966102115
QIANFAN-47              
1 62248U 24232M   26003.22021901  .00000103  00000+0  14111-3 0  9997
2 62248  89.0003  39.0528 0016440 131.6011 228.6552 13.50981159102149
QIANFAN-48              
1 62249U 24232N   26003.25721105  .00000100  00000+0  13546-3 0  9992
2 62249  89.0007  39.0517 0018632 134.4268 225.8411 13.50982799102157
